{
  "type": "FeatureCollection",
  "features": [
    {
      "type": "Feature",
      "geometry": {
        "type": "LineString",
        "coordinates": [
          [
            85.8,
            20.52
          ],
          [
            85.89,
            20.48
          ],
          [
            86.08,
            20.45
          ],
          [
            86.32,
            20.42
          ],
          [
            86.58,
            20.46
          ],
          [
            86.72,
            20.5
          ]
        ]
      },
      "properties": {
        "id": "river_mahanadi_main",
        "name": "Mahanadi River Lower Delta Channel",
        "district": "Cuttack / Jagatsinghpur / Kendrapara",
        "risk_level": "High",
        "type": "Riverine Inundation Pathway",
        "source": "Mahanadi Basin Organization / CWC / GPM IMERG"
      }
    },
    {
      "type": "Feature",
      "geometry": {
        "type": "LineString",
        "coordinates": [
          [
            85.86,
            20.44
          ],
          [
            85.98,
            20.35
          ],
          [
            86.15,
            20.25
          ],
          [
            86.35,
            20.12
          ],
          [
            86.42,
            20.0
          ]
        ]
      },
      "properties": {
        "id": "river_kathajodi_devi",
        "name": "Kathajodi - Devi River Distributary",
        "district": "Cuttack / Jagatsinghpur",
        "risk_level": "Severe",
        "type": "Riverine Inundation Pathway",
        "source": "Mahanadi Basin Organization / CWC / GPM IMERG"
      }
    },
    {
      "type": "Feature",
      "geometry": {
        "type": "LineString",
        "coordinates": [
          [
            85.82,
            20.28
          ],
          [
            85.84,
            20.15
          ],
          [
            85.83,
            19.98
          ],
          [
            85.75,
            19.82
          ],
          [
            85.55,
            19.7
          ]
        ]
      },
      "properties": {
        "id": "river_daya_bhargavi",
        "name": "Daya - Bhargavi River System (Chilika Inflow)",
        "district": "Khordha / Puri",
        "risk_level": "Severe",
        "type": "Riverine Inundation Pathway",
        "source": "Mahanadi Basin Organization / CWC / GPM IMERG"
      }
    },
    {
      "type": "Feature",
      "geometry": {
        "type": "LineString",
        "coordinates": [
          [
            85.85,
            20.22
          ],
          [
            85.92,
            20.1
          ],
          [
            86.02,
            19.95
          ],
          [
            86.08,
            19.86
          ]
        ]
      },
      "properties": {
        "id": "river_kushabhadra",
        "name": "Kushabhadra River Coastal Outfall",
        "district": "Puri",
        "risk_level": "High",
        "type": "Riverine Inundation Pathway",
        "source": "Mahanadi Basin Organization / CWC / GPM IMERG"
      }
    },
    {
      "type": "Feature",
      "geometry": {
        "type": "LineString",
        "coordinates": [
          [
            85.78,
            20.32
          ],
          [
            85.81,
            20.27
          ],
          [
            85.84,
            20.22
          ],
          [
            85.85,
            20.18
          ]
        ]
      },
      "properties": {
        "id": "urban_bbsr_gangua",
        "name": "Gangua Nallah Urban Drainage Corridor (Bhubaneswar)",
        "district": "Khordha",
        "risk_level": "Severe",
        "type": "Riverine Inundation Pathway",
        "source": "Mahanadi Basin Organization / CWC / GPM IMERG"
      }
    }
  ]
}